[{"OBJECT_NAME":"LUCH 5V (SDCM/PRN 141)","OBJECT_ID":"2014-023A","EPOCH":"2026-03-28T22:04:53.616864","MEAN_MOTION":1.00272033,"ECCENTRICITY":0.00024694,"INCLINATION":4.9363,"RA_OF_ASC_NODE":70.526,"ARG_OF_PERICENTER":303.7488,"MEAN_ANOMALY":238.0171,"EPHEMERIS_TYPE":0,"CLASSIFICATION_TYPE":"U","NORAD_CAT_ID":39727,"ELEMENT_SET_NO":999,"REV_AT_EPOCH":4355,"BSTAR":0,"MEAN_MOTION_DOT":-2.84e-6,"MEAN_MOTION_DDOT":0},{"OBJECT_NAME":"GPS BIIF-6  (PRN 06)","OBJECT_ID":"2014-026A","EPOCH":"2026-03-28T04:35:35.006496","MEAN_MOTION":2.00566865,"ECCENTRICITY":0.00395184,"INCLINATION":56.535,"RA_OF_ASC_NODE":334.6726,"ARG_OF_PERICENTER":325.7427,"MEAN_ANOMALY":34.0463,"EPHEMERIS_TYPE":0,"CLASSIFICATION_TYPE":"U","NORAD_CAT_ID":39741,"ELEMENT_SET_NO":999,"REV_AT_EPOCH":8691,"BSTAR":0,"MEAN_MOTION_DOT":-8.4e-7,"MEAN_MOTION_DDOT":0},{"OBJECT_NAME":"COSMOS 2500 (755)","OBJECT_ID":"2014-032A","EPOCH":"2026-03-28T19:06:51.677280","MEAN_MOTION":2.13105819,"ECCENTRICITY":0.00050803,"INCLINATION":65.2782,"RA_OF_ASC_NODE":316.4236,"ARG_OF_PERICENTER":190.1719,"MEAN_ANOMALY":169.8736,"EPHEMERIS_TYPE":0,"CLASSIFICATION_TYPE":"U","NORAD_CAT_ID":40001,"ELEMENT_SET_NO":999,"REV_AT_EPOCH":9174,"BSTAR":0,"MEAN_MOTION_DOT":-2.6e-7,"MEAN_MOTION_DDOT":0},{"OBJECT_NAME":"GPS BIIF-7  (PRN 09)","OBJECT_ID":"2014-045A","EPOCH":"2026-03-28T06:43:51.050208","MEAN_MOTION":2.00553048,"ECCENTRICITY":0.0031377,"INCLINATION":55.2986,"RA_OF_ASC_NODE":91.6863,"ARG_OF_PERICENTER":119.9296,"MEAN_ANOMALY":240.4172,"EPHEMERIS_TYPE":0,"CLASSIFICATION_TYPE":"U","NORAD_CAT_ID":40105,"ELEMENT_SET_NO":999,"REV_AT_EPOCH":8445,"BSTAR":0,"MEAN_MOTION_DOT":4.1e-7,"MEAN_MOTION_DDOT":0},{"OBJECT_NAME":"GSAT0201 (GALILEO 5)","OBJECT_ID":"2014-050A","EPOCH":"2026-03-26T22:51:03.025440","MEAN_MOTION":1.85519926,"ECCENTRICITY":0.1661372,"INCLINATION":48.9652,"RA_OF_ASC_NODE":276.8011,"ARG_OF_PERICENTER":176.1891,"MEAN_ANOMALY":185.2559,"EPHEMERIS_TYPE":0,"CLASSIFICATION_TYPE":"U","NORAD_CAT_ID":40128,"ELEMENT_SET_NO":999,"REV_AT_EPOCH":7679,"BSTAR":0,"MEAN_MOTION_DOT":-4.0e-8,"MEAN_MOTION_DDOT":0},{"OBJECT_NAME":"GSAT0202 (GALILEO 6)","OBJECT_ID":"2014-050B","EPOCH":"2026-03-26T03:07:10.740288","MEAN_MOTION":1.85520606,"ECCENTRICITY":0.16622335,"INCLINATION":48.9839,"RA_OF_ASC_NODE":275.9195,"ARG_OF_PERICENTER":176.8927,"MEAN_ANOMALY":184.2876,"EPHEMERIS_TYPE":0,"CLASSIFICATION_TYPE":"U","NORAD_CAT_ID":40129,"ELEMENT_SET_NO":999,"REV_AT_EPOCH":7894,"BSTAR":0,"MEAN_MOTION_DOT":3.0e-8,"MEAN_MOTION_DDOT":0},{"OBJECT_NAME":"IRNSS-1C","OBJECT_ID":"2014-061A","EPOCH":"2026-03-28T22:01:38.928288","MEAN_MOTION":1.00274186,"ECCENTRICITY":0.00207214,"INCLINATION":6.3118,"RA_OF_ASC_NODE":90.4753,"ARG_OF_PERICENTER":355.8522,"MEAN_ANOMALY":153.4027,"EPHEMERIS_TYPE":0,"CLASSIFICATION_TYPE":"U","NORAD_CAT_ID":40269,"ELEMENT_SET_NO":999,"REV_AT_EPOCH":4188,"BSTAR":0,"MEAN_MOTION_DOT":-1.76e-6,"MEAN_MOTION_DDOT":0},{"OBJECT_NAME":"GPS BIIF-8  (PRN 03)","OBJECT_ID":"2014-068A","EPOCH":"2026-03-27T15:47:42.451008","MEAN_MOTION":2.00571381,"ECCENTRICITY":0.0063895,"INCLINATION":56.9354,"RA_OF_ASC_NODE":34.096,"ARG_OF_PERICENTER":68.2397,"MEAN_ANOMALY":292.425,"EPHEMERIS_TYPE":0,"CLASSIFICATION_TYPE":"U","NORAD_CAT_ID":40294,"ELEMENT_SET_NO":999,"REV_AT_EPOCH":8357,"BSTAR":0,"MEAN_MOTION_DOT":-7.0e-7,"MEAN_MOTION_DDOT":0},{"OBJECT_NAME":"COSMOS 2501 (702K)","OBJECT_ID":"2014-075A","EPOCH":"2026-03-25T07:16:41.300256","MEAN_MOTION":2.13101287,"ECCENTRICITY":0.00211828,"INCLINATION":63.6158,"RA_OF_ASC_NODE":193.2737,"ARG_OF_PERICENTER":207.3153,"MEAN_ANOMALY":152.5805,"EPHEMERIS_TYPE":0,"CLASSIFICATION_TYPE":"U","NORAD_CAT_ID":40315,"ELEMENT_SET_NO":999,"REV_AT_EPOCH":8806,"BSTAR":0,"MEAN_MOTION_DOT":1.0e-8,"MEAN_MOTION_DDOT":0},{"OBJECT_NAME":"GPS BIIF-9  (PRN 26)","OBJECT_ID":"2015-013A","EPOCH":"2026-03-27T07:00:33.330816","MEAN_MOTION":2.00556171,"ECCENTRICITY":0.01087923,"INCLINATION":53.181,"RA_OF_ASC_NODE":207.5638,"ARG_OF_PERICENTER":39.9071,"MEAN_ANOMALY":320.8617,"EPHEMERIS_TYPE":0,"CLASSIFICATION_TYPE":"U","NORAD_CAT_ID":40534,"ELEMENT_SET_NO":999,"REV_AT_EPOCH":8018,"BSTAR":0,"MEAN_MOTION_DOT":-2.9e-7,"MEAN_MOTION_DDOT":0},{"OBJECT_NAME":"GSAT0203 (GALILEO 7)","OBJECT_ID":"2015-017A","EPOCH":"2026-03-27T16:15:59.650272","MEAN_MOTION":1.70475469,"ECCENTRICITY":0.0003036,"INCLINATION":56.8123,"RA_OF_ASC_NODE":343.8202,"ARG_OF_PERICENTER":318.8222,"MEAN_ANOMALY":41.1887,"EPHEMERIS_TYPE":0,"CLASSIFICATION_TYPE":"U","NORAD_CAT_ID":40544,"ELEMENT_SET_NO":999,"REV_AT_EPOCH":6781,"BSTAR":0,"MEAN_MOTION_DOT":-9.7e-7,"MEAN_MOTION_DDOT":0},{"OBJECT_NAME":"GSAT0204 (GALILEO 8)","OBJECT_ID":"2015-017B","EPOCH":"2026-03-27T08:19:21.027360","MEAN_MOTION":1.70475336,"ECCENTRICITY":0.00033144,"INCLINATION":56.8192,"RA_OF_ASC_NODE":343.847,"ARG_OF_PERICENTER":290.4029,"MEAN_ANOMALY":69.5952,"EPHEMERIS_TYPE":0,"CLASSIFICATION_TYPE":"U","NORAD_CAT_ID":40545,"ELEMENT_SET_NO":999,"REV_AT_EPOCH":3085,"BSTAR":0,"MEAN_MOTION_DOT":-9.7e-7,"MEAN_MOTION_DDOT":0},{"OBJECT_NAME":"BEIDOU-3S IGSO-1S (C31)","OBJECT_ID":"2015-019A","EPOCH":"2026-03-23T06:58:51.098016","MEAN_MOTION":1.00268843,"ECCENTRICITY":0.0036261,"INCLINATION":49.3559,"RA_OF_ASC_NODE":296.4949,"ARG_OF_PERICENTER":190.1236,"MEAN_ANOMALY":255.118,"EPHEMERIS_TYPE":0,"CLASSIFICATION_TYPE":"U","NORAD_CAT_ID":40549,"ELEMENT_SET_NO":999,"REV_AT_EPOCH":4021,"BSTAR":0,"MEAN_MOTION_DOT":-1.63e-6,"MEAN_MOTION_DDOT":0},{"OBJECT_NAME":"GPS BIIF-10 (PRN 08)","OBJECT_ID":"2015-033A","EPOCH":"2026-03-27T22:49:04.798272","MEAN_MOTION":2.00560324,"ECCENTRICITY":0.01148602,"INCLINATION":54.0472,"RA_OF_ASC_NODE":270.4335,"ARG_OF_PERICENTER":29.465,"MEAN_ANOMALY":331.1739,"EPHEMERIS_TYPE":0,"CLASSIFICATION_TYPE":"U","NORAD_CAT_ID":40730,"ELEMENT_SET_NO":999,"REV_AT_EPOCH":7836,"BSTAR":0,"MEAN_MOTION_DOT":4.0e-8,"MEAN_MOTION_DDOT":0},{"OBJECT_NAME":"BEIDOU-3S M2S (C58)","OBJECT_ID":"2015-037A","EPOCH":"2026-03-26T15:11:41.766720","MEAN_MOTION":1.86231913,"ECCENTRICITY":0.00081621,"INCLINATION":54.943,"RA_OF_ASC_NODE":304.8894,"ARG_OF_PERICENTER":277.0076,"MEAN_ANOMALY":82.9375,"EPHEMERIS_TYPE":0,"CLASSIFICATION_TYPE":"U","NORAD_CAT_ID":40748,"ELEMENT_SET_NO":999,"REV_AT_EPOCH":7258,"BSTAR":0,"MEAN_MOTION_DOT":-3.1e-7,"MEAN_MOTION_DDOT":0},{"OBJECT_NAME":"BEIDOU-3S M1S (C57)","OBJECT_ID":"2015-037B","EPOCH":"2026-03-28T11:04:15.951936","MEAN_MOTION":1.86254792,"ECCENTRICITY":0.00047038,"INCLINATION":54.9387,"RA_OF_ASC_NODE":304.8137,"ARG_OF_PERICENTER":41.1359,"MEAN_ANOMALY":318.9389,"EPHEMERIS_TYPE":0,"CLASSIFICATION_TYPE":"U","NORAD_CAT_ID":40749,"ELEMENT_SET_NO":999,"REV_AT_EPOCH":7262,"BSTAR":0,"MEAN_MOTION_DOT":-3.6e-7,"MEAN_MOTION_DDOT":0},{"OBJECT_NAME":"GSAT0205 (GALILEO 9)","OBJECT_ID":"2015-045A","EPOCH":"2026-03-27T08:44:09.530016","MEAN_MOTION":1.67410754,"ECCENTRICITY":0.0004152,"INCLINATION":54.9729,"RA_OF_ASC_NODE":223.9518,"ARG_OF_PERICENTER":269.7313,"MEAN_ANOMALY":90.1696,"EPHEMERIS_TYPE":0,"CLASSIFICATION_TYPE":"U","NORAD_CAT_ID":40889,"ELEMENT_SET_NO":999,"REV_AT_EPOCH":6559,"BSTAR":0,"MEAN_MOTION_DOT":-1.1e-7,"MEAN_MOTION_DDOT":0}]
